[{"OBJECT_NAME":"STARLINK-31696","OBJECT_ID":"2024-065Q","EPOCH":"2026-03-09T21:40:27.816672","MEAN_MOTION":15.30191505,"ECCENTRICITY":0.00011403,"INCLINATION":53.1601,"RA_OF_ASC_NODE":280.5719,"ARG_OF_PERICENTER":101.0378,"MEAN_ANOMALY":259.0751,"EPHEMERIS_TYPE":0,"CLASSIFICATION_TYPE":"U","NORAD_CAT_ID":59435,"ELEMENT_SET_NO":999,"REV_AT_EPOCH":10896,"BSTAR":3.151846e-6,"MEAN_MOTION_DOT":-2.66e-6,"MEAN_MOTION_DDOT":0},{"OBJECT_NAME":"ELECTRON KICK STAGE R\/B","OBJECT_ID":"2024-077D","EPOCH":"2026-03-09T23:22:03.772128","MEAN_MOTION":14.57371822,"ECCENTRICITY":0.03475139,"INCLINATION":97.3266,"RA_OF_ASC_NODE":78.5056,"ARG_OF_PERICENTER":202.0113,"MEAN_ANOMALY":156.5853,"EPHEMERIS_TYPE":0,"CLASSIFICATION_TYPE":"U","NORAD_CAT_ID":59590,"ELEMENT_SET_NO":999,"REV_AT_EPOCH":9944,"BSTAR":0.00037103128,"MEAN_MOTION_DOT":3.845e-5,"MEAN_MOTION_DDOT":0}]
